IRIDIUM 116             
1 43072U 17083C   24307.78725088  .00000526  00000+0  18065-3 0  9991
2 43072  86.4025 209.1384 0002092  75.8809 284.2619 14.34214853359408
IRIDIUM 130             
1 43073U 17083D   24308.17414584  .00000550  00000+0  18929-3 0  9998
2 43073  86.4027 209.1944 0002393  79.9673 280.1793 14.34217877359408
IRIDIUM 134             
1 43075U 17083F   24307.76822462  .00001045  00000+0  36608-3 0  9996
2 43075  86.4030 209.1906 0002302  80.3666 279.7790 14.34214197359335
IRIDIUM 137             
1 43076U 17083G   24307.78091055  .00000278  00000+0  92096-4 0  9996
2 43076  86.4029 209.2660 0001861  65.1369 295.0020 14.34211700359404
IRIDIUM 141             
1 43077U 17083H   24307.77457079  .00000375  00000+0  12683-3 0  9999
2 43077  86.4027 209.1337 0002126  88.3754 271.7685 14.34212311359400
IRIDIUM 153             
1 43078U 17083J   24308.14534852  .00001370  00000+0  48202-3 0  9999
2 43078  86.4023 177.5104 0001978 101.6649 258.4768 14.34227290360568
IRIDIUM 131             
1 43079U 17083K   24308.18049915  .00000486  00000+0  16641-3 0  9994
2 43079  86.4030 209.1103 0001964  88.6227 271.5194 14.34217615359397
