<?xml version="1.0" encoding="UTF-8"?>
<ndm xmlns:xsi="http://www.w3.org/2001/XMLSchema-instance" xsi:noNamespaceSchemaLocation="https://sanaregistry.org/r/ndmxml_unqualified/ndmxml-2.0.0-master-2.0.xsd">
<omm id="CCSDS_OMM_VERS" version="2.0">
<header><CREATION_DATE/><ORIGINATOR/></header><body><segment><metadata><OBJECT_NAME>IRIDIUM 116</OBJECT_NAME><OBJECT_ID>2017-083C</OBJECT_ID><CENTER_NAME>EARTH</CENTER_NAME><REF_FRAME>TEME</REF_FRAME><TIME_SYSTEM>UTC</TIME_SYSTEM><MEAN_ELEMENT_THEORY>SGP4</MEAN_ELEMENT_THEORY></metadata><data><meanElements><EPOCH>2024-11-02T18:53:38.476032</EPOCH><MEAN_MOTION>14.34214853</MEAN_MOTION><ECCENTRICITY>.0002092</ECCENTRICITY><INCLINATION>86.4025</INCLINATION><RA_OF_ASC_NODE>209.1384</RA_OF_ASC_NODE><ARG_OF_PERICENTER>75.8809</ARG_OF_PERICENTER><MEAN_ANOMALY>284.2619</MEAN_ANOMALY></meanElements><tleParameters><EPHEMERIS_TYPE>0</EPHEMERIS_TYPE><CLASSIFICATION_TYPE>U</CLASSIFICATION_TYPE><NORAD_CAT_ID>43072</NORAD_CAT_ID><ELEMENT_SET_NO>999</ELEMENT_SET_NO><REV_AT_EPOCH>35940</REV_AT_EPOCH><BSTAR>.18065E-3</BSTAR><MEAN_MOTION_DOT>.526E-5</MEAN_MOTION_DOT><MEAN_MOTION_DDOT>0</MEAN_MOTION_DDOT></tleParameters></data></segment></body></omm>
<omm id="CCSDS_OMM_VERS" version="2.0">
<header><CREATION_DATE/><ORIGINATOR/></header><body><segment><metadata><OBJECT_NAME>IRIDIUM 130</OBJECT_NAME><OBJECT_ID>2017-083D</OBJECT_ID><CENTER_NAME>EARTH</CENTER_NAME><REF_FRAME>TEME</REF_FRAME><TIME_SYSTEM>UTC</TIME_SYSTEM><MEAN_ELEMENT_THEORY>SGP4</MEAN_ELEMENT_THEORY></metadata><data><meanElements><EPOCH>2024-11-03T04:10:46.200576</EPOCH><MEAN_MOTION>14.34217877</MEAN_MOTION><ECCENTRICITY>.0002393</ECCENTRICITY><INCLINATION>86.4027</INCLINATION><RA_OF_ASC_NODE>209.1944</RA_OF_ASC_NODE><ARG_OF_PERICENTER>79.9673</ARG_OF_PERICENTER><MEAN_ANOMALY>280.1793</MEAN_ANOMALY></meanElements><tleParameters><EPHEMERIS_TYPE>0</EPHEMERIS_TYPE><CLASSIFICATION_TYPE>U</CLASSIFICATION_TYPE><NORAD_CAT_ID>43073</NORAD_CAT_ID><ELEMENT_SET_NO>999</ELEMENT_SET_NO><REV_AT_EPOCH>35940</REV_AT_EPOCH><BSTAR>.18929E-3</BSTAR><MEAN_MOTION_DOT>.55E-5</MEAN_MOTION_DOT><MEAN_MOTION_DDOT>0</MEAN_MOTION_DDOT></tleParameters></data></segment></body></omm>
<omm id="CCSDS_OMM_VERS" version="2.0">
<header><CREATION_DATE/><ORIGINATOR/></header><body><segment><metadata><OBJECT_NAME>IRIDIUM 134</OBJECT_NAME><OBJECT_ID>2017-083F</OBJECT_ID><CENTER_NAME>EARTH</CENTER_NAME><REF_FRAME>TEME</REF_FRAME><TIME_SYSTEM>UTC</TIME_SYSTEM><MEAN_ELEMENT_THEORY>SGP4</MEAN_ELEMENT_THEORY></metadata><data><meanElements><EPOCH>2024-11-02T18:26:14.607168</EPOCH><MEAN_MOTION>14.34214197</MEAN_MOTION><ECCENTRICITY>.0002302</ECCENTRICITY><INCLINATION>86.4030</INCLINATION><RA_OF_ASC_NODE>209.1906</RA_OF_ASC_NODE><ARG_OF_PERICENTER>80.3666</ARG_OF_PERICENTER><MEAN_ANOMALY>279.7790</MEAN_ANOMALY></meanElements><tleParameters><EPHEMERIS_TYPE>0</EPHEMERIS_TYPE><CLASSIFICATION_TYPE>U</CLASSIFICATION_TYPE><NORAD_CAT_ID>43075</NORAD_CAT_ID><ELEMENT_SET_NO>999</ELEMENT_SET_NO><REV_AT_EPOCH>35933</REV_AT_EPOCH><BSTAR>.36608E-3</BSTAR><MEAN_MOTION_DOT>.1045E-4</MEAN_MOTION_DOT><MEAN_MOTION_DDOT>0</MEAN_MOTION_DDOT></tleParameters></data></segment></body></omm>
<omm id="CCSDS_OMM_VERS" version="2.0">
<header><CREATION_DATE/><ORIGINATOR/></header><body><segment><metadata><OBJECT_NAME>IRIDIUM 137</OBJECT_NAME><OBJECT_ID>2017-083G</OBJECT_ID><CENTER_NAME>EARTH</CENTER_NAME><REF_FRAME>TEME</REF_FRAME><TIME_SYSTEM>UTC</TIME_SYSTEM><MEAN_ELEMENT_THEORY>SGP4</MEAN_ELEMENT_THEORY></metadata><data><meanElements><EPOCH>2024-11-02T18:44:30.671520</EPOCH><MEAN_MOTION>14.34211700</MEAN_MOTION><ECCENTRICITY>.0001861</ECCENTRICITY><INCLINATION>86.4029</INCLINATION><RA_OF_ASC_NODE>209.2660</RA_OF_ASC_NODE><ARG_OF_PERICENTER>65.1369</ARG_OF_PERICENTER><MEAN_ANOMALY>295.0020</MEAN_ANOMALY></meanElements><tleParameters><EPHEMERIS_TYPE>0</EPHEMERIS_TYPE><CLASSIFICATION_TYPE>U</CLASSIFICATION_TYPE><NORAD_CAT_ID>43076</NORAD_CAT_ID><ELEMENT_SET_NO>999</ELEMENT_SET_NO><REV_AT_EPOCH>35940</REV_AT_EPOCH><BSTAR>.92096E-4</BSTAR><MEAN_MOTION_DOT>.278E-5</MEAN_MOTION_DOT><MEAN_MOTION_DDOT>0</MEAN_MOTION_DDOT></tleParameters></data></segment></body></omm>
<omm id="CCSDS_OMM_VERS" version="2.0">
<header><CREATION_DATE/><ORIGINATOR/></header><body><segment><metadata><OBJECT_NAME>IRIDIUM 141</OBJECT_NAME><OBJECT_ID>2017-083H</OBJECT_ID><CENTER_NAME>EARTH</CENTER_NAME><REF_FRAME>TEME</REF_FRAME><TIME_SYSTEM>UTC</TIME_SYSTEM><MEAN_ELEMENT_THEORY>SGP4</MEAN_ELEMENT_THEORY></metadata><data><meanElements><EPOCH>2024-11-02T18:35:22.916256</EPOCH><MEAN_MOTION>14.34212311</MEAN_MOTION><ECCENTRICITY>.0002126</ECCENTRICITY><INCLINATION>86.4027</INCLINATION><RA_OF_ASC_NODE>209.1337</RA_OF_ASC_NODE><ARG_OF_PERICENTER>88.3754</ARG_OF_PERICENTER><MEAN_ANOMALY>271.7685</MEAN_ANOMALY></meanElements><tleParameters><EPHEMERIS_TYPE>0</EPHEMERIS_TYPE><CLASSIFICATION_TYPE>U</CLASSIFICATION_TYPE><NORAD_CAT_ID>43077</NORAD_CAT_ID><ELEMENT_SET_NO>999</ELEMENT_SET_NO><REV_AT_EPOCH>35940</REV_AT_EPOCH><BSTAR>.12683E-3</BSTAR><MEAN_MOTION_DOT>.375E-5</MEAN_MOTION_DOT><MEAN_MOTION_DDOT>0</MEAN_MOTION_DDOT></tleParameters></data></segment></body></omm>
<omm id="CCSDS_OMM_VERS" version="2.0">
<header><CREATION_DATE/><ORIGINATOR/></header><body><segment><metadata><OBJECT_NAME>IRIDIUM 153</OBJECT_NAME><OBJECT_ID>2017-083J</OBJECT_ID><CENTER_NAME>EARTH</CENTER_NAME><REF_FRAME>TEME</REF_FRAME><TIME_SYSTEM>UTC</TIME_SYSTEM><MEAN_ELEMENT_THEORY>SGP4</MEAN_ELEMENT_THEORY></metadata><data><meanElements><EPOCH>2024-11-03T03:29:18.112128</EPOCH><MEAN_MOTION>14.34227290</MEAN_MOTION><ECCENTRICITY>.0001978</ECCENTRICITY><INCLINATION>86.4023</INCLINATION><RA_OF_ASC_NODE>177.5104</RA_OF_ASC_NODE><ARG_OF_PERICENTER>101.6649</ARG_OF_PERICENTER><MEAN_ANOMALY>258.4768</MEAN_ANOMALY></meanElements><tleParameters><EPHEMERIS_TYPE>0</EPHEMERIS_TYPE><CLASSIFICATION_TYPE>U</CLASSIFICATION_TYPE><NORAD_CAT_ID>43078</NORAD_CAT_ID><ELEMENT_SET_NO>999</ELEMENT_SET_NO><REV_AT_EPOCH>36056</REV_AT_EPOCH><BSTAR>.48202E-3</BSTAR><MEAN_MOTION_DOT>.137E-4</MEAN_MOTION_DOT><MEAN_MOTION_DDOT>0</MEAN_MOTION_DDOT></tleParameters></data></segment></body></omm>
<omm id="CCSDS_OMM_VERS" version="2.0">
<header><CREATION_DATE/><ORIGINATOR/></header><body><segment><metadata><OBJECT_NAME>IRIDIUM 131</OBJECT_NAME><OBJECT_ID>2017-083K</OBJECT_ID><CENTER_NAME>EARTH</CENTER_NAME><REF_FRAME>TEME</REF_FRAME><TIME_SYSTEM>UTC</TIME_SYSTEM><MEAN_ELEMENT_THEORY>SGP4</MEAN_ELEMENT_THEORY></metadata><data><meanElements><EPOCH>2024-11-03T04:19:55.126560</EPOCH><MEAN_MOTION>14.34217615</MEAN_MOTION><ECCENTRICITY>.0001964</ECCENTRICITY><INCLINATION>86.4030</INCLINATION><RA_OF_ASC_NODE>209.1103</RA_OF_ASC_NODE><ARG_OF_PERICENTER>88.6227</ARG_OF_PERICENTER><MEAN_ANOMALY>271.5194</MEAN_ANOMALY></meanElements><tleParameters><EPHEMERIS_TYPE>0</EPHEMERIS_TYPE><CLASSIFICATION_TYPE>U</CLASSIFICATION_TYPE><NORAD_CAT_ID>43079</NORAD_CAT_ID><ELEMENT_SET_NO>999</ELEMENT_SET_NO><REV_AT_EPOCH>35939</REV_AT_EPOCH><BSTAR>.16641E-3</BSTAR><MEAN_MOTION_DOT>.486E-5</MEAN_MOTION_DOT><MEAN_MOTION_DDOT>0</MEAN_MOTION_DDOT></tleParameters></data></segment></body></omm>

</ndm>
